
VHHH 150500Z 12006KT 9999 FEW040 28/14 Q1018 NOSIG

VHHH 110200Z 1103/1209 36015KT 9999 FEW025 TX26/1106Z TX26/1206Z TN21/1122Z TEMPO 1103/1108 36015G25KT BECMG 1113/1115 36020KT

KJFK 150251Z 26010KT 10SM SCT070 SCT120 SCT250 08/M02 A2994 RMK AO2 SLP137 T00781017 55004

TAF KJFK 092041Z 0921/1024 11010KT 6SM BR VCSH BKN007

RJAA 130218Z 36006KT 2000 -RA BR SCT003 BKN015 10/10 Q1015 TEMPO 1301/1307 SCT004 BKN008 BECMG 1403/1406 32006KT 9999 FEW008 BKN015

• TAF: RJCC 140505Z 1406/1512 34010KT 9999 FEW008 BKN025 TEMPO 1407/1414 3000 -SHSN BKN030 BECMG 1413/1415 16006KT

PANC 131728Z 1318/1424 VRB03KT P6SM OVC050 FM132100 02003KT P6SM SKC

PABR 110520Z 1106/1206 VRB04KT P6SM OVC013 FM111500 08008KT 6SM -SN BR OVC008

CYQX 060900Z 26015G23KT 20SM FEW037 02/M01 A2933 TEMPO 0606/0612 BKN030 BECMG 0610/0612 26012KT

KBOS 112104Z 1121/1224 27016G31KT P6SM SCT048 BKN110 OVC170 FM120230 31013G25KT P6SM OVC035

KEWR 090451Z 00000KT 10SM FEW075 SCT100 SCT200 BKN250 13/06 A2989 BECMG 0908/0910 08008KT 6SM BKN025
